[{"OBJECT_NAME":"STARLINK-34917","OBJECT_ID":"2025-175S","EPOCH":"2026-03-09T22:00:01.999584","MEAN_MOTION":15.05633082,"ECCENTRICITY":0.00022216,"INCLINATION":97.6024,"RA_OF_ASC_NODE":302.9089,"ARG_OF_PERICENTER":73.1727,"MEAN_ANOMALY":24.4203,"EPHEMERIS_TYPE":0,"CLASSIFICATION_TYPE":"U","NORAD_CAT_ID":65190,"ELEMENT_SET_NO":999,"REV_AT_EPOCH":579,"BSTAR":0.0015512338,"MEAN_MOTION_DOT":0.00022383,"MEAN_MOTION_DDOT":0},{"OBJECT_NAME":"NEONSAT-1A","OBJECT_ID":"2026-019A","EPOCH":"2026-03-09T21:53:31.879392","MEAN_MOTION":15.0780294,"ECCENTRICITY":0.00137261,"INCLINATION":97.411,"RA_OF_ASC_NODE":192.4819,"ARG_OF_PERICENTER":167.4713,"MEAN_ANOMALY":192.686,"EPHEMERIS_TYPE":0,"CLASSIFICATION_TYPE":"U","NORAD_CAT_ID":67614,"ELEMENT_SET_NO":999,"REV_AT_EPOCH":585,"BSTAR":0.00027109929,"MEAN_MOTION_DOT":4.096e-5,"MEAN_MOTION_DDOT":0}]
